STARLINK-32887          
1 62964U 25029S   26068.71228766  .00020683  00000+0  70857-3 0  9994
2 62964  53.1596 230.0370 0001182  88.0108 272.1028 15.30196082 61352
ION SCV-017             
1 63230U 25052W   26068.71648816  .00006457  00000+0  24539-3 0  9998
2 63230  97.4016 324.7516 0023746  44.9875 315.3282 15.26881798 54851
